start=new Date('2021-10-10T00:00:00.000Z').valueOf();
sats=[{"PERIOD":"91.596","MEAN_MOTION":"15.72115342","TIME_SYSTEM":"UTC","EPOCH":"2021-10-10T00:00:00.999648","RA_OF_ASC_NODE":"287.3520","OBJECT_TYPE":"PAYLOAD","EPHEMERIS_TYPE":"0","ELEMENT_SET_NO":"999","COUNTRY_CODE":"US","MEAN_ELEMENT_THEORY":"SGP4","TLE_LINE1":"1 47986U 21024K   21283.00001157  .00010700  00000-0  84278-4 0  9994","BSTAR":"0.00008427800000","SEMIMAJOR_AXIS":"6730.989","RCS_SIZE":"LARGE","INCLINATION":"53.0288","OBJECT_ID":"2021-024K","SITE":"AFETR","GP_ID":"186729377","APOAPSIS":"355.415","REV_AT_EPOCH":"367","PERIAPSIS":"350.294","FILE":"3153808","LAUNCH_DATE":"2021-03-24","DECAY_DATE":null,"ECCENTRICITY":"0.00038040","OBJECT_NAME":"STARLINK-2313","MEAN_MOTION_DDOT":"0.0000000000000","MEAN_ANOMALY":"319.3498","CENTER_NAME":"EARTH","ARG_OF_PERICENTER":"350.4713","MEAN_MOTION_DOT":"0.00010700","REF_FRAME":"TEME","NORAD_CAT_ID":"47986","TLE_LINE2":"2 47986  53.0288 287.3520 0003804 350.4713 319.3498 15.72115342  3671","CLASSIFICATION_TYPE":"U"},{"TIME_SYSTEM":"UTC","EPOCH":"2021-10-10T00:00:00.999648","PERIOD":"91.529","MEAN_MOTION":"15.73275115","EPHEMERIS_TYPE":"0","OBJECT_TYPE":"PAYLOAD","ELEMENT_SET_NO":"999","RA_OF_ASC_NODE":"292.0315","TLE_LINE1":"1 47987U 21024L   21283.00001157 -.00026014  00000-0 -18080-3 0  9999","BSTAR":"-0.00018080000000","SEMIMAJOR_AXIS":"6727.681","COUNTRY_CODE":"US","MEAN_ELEMENT_THEORY":"SGP4","APOAPSIS":"351.710","OBJECT_ID":"2021-024L","RCS_SIZE":"LARGE","INCLINATION":"53.0449","SITE":"AFETR","GP_ID":"186729125","FILE":"3153808","REV_AT_EPOCH":"368","PERIAPSIS":"347.382","DECAY_DATE":null,"OBJECT_NAME":"STARLINK-2311","ECCENTRICITY":"0.00032160","LAUNCH_DATE":"2021-03-24","ARG_OF_PERICENTER":"12.6871","MEAN_MOTION_DDOT":"0.0000000000000","CENTER_NAME":"EARTH","MEAN_ANOMALY":"336.9377","CLASSIFICATION_TYPE":"U","MEAN_MOTION_DOT":"-0.00026014","REF_FRAME":"TEME","NORAD_CAT_ID":"47987","TLE_LINE2":"2 47987  53.0449 292.0315 0003216  12.6871 336.9377 15.73275115  3683"},{"EPHEMERIS_TYPE":"0","OBJECT_TYPE":"PAYLOAD","ELEMENT_SET_NO":"999","RA_OF_ASC_NODE":"348.7372","TIME_SYSTEM":"UTC","EPOCH":"2021-10-09T13:28:13.346112","MEAN_MOTION":"15.06391368","PERIOD":"95.593","APOAPSIS":"547.951","RCS_SIZE":"LARGE","OBJECT_ID":"2021-024M","INCLINATION":"53.0579","SITE":"AFETR","GP_ID":"186728377","TLE_LINE1":"1 47988U 21024M   21282.56126558 -.00001305  00000-0 -68742-4 0  9990","BSTAR":"-0.00006874200000","SEMIMAJOR_AXIS":"6925.375","COUNTRY_CODE":"US","MEAN_ELEMENT_THEORY":"SGP4","DECAY_DATE":null,"ECCENTRICITY":"0.00010260","OBJECT_NAME":"STARLINK-2306","LAUNCH_DATE":"2021-03-24","FILE":"3153808","REV_AT_EPOCH":"3186","PERIAPSIS":"546.529","CLASSIFICATION_TYPE":"U","MEAN_MOTION_DOT":"-0.00001305","REF_FRAME":"TEME","NORAD_CAT_ID":"47988","TLE_LINE2":"2 47988  53.0579 348.7372 0001026  99.8966 260.2138 15.06391368 31869","ARG_OF_PERICENTER":"99.8966","MEAN_MOTION_DDOT":"0.0000000000000","CENTER_NAME":"EARTH","MEAN_ANOMALY":"260.2138"},{"MEAN_MOTION_DDOT":"0.0000000000000","MEAN_ANOMALY":"207.1269","CENTER_NAME":"EARTH","ARG_OF_PERICENTER":"339.5786","MEAN_MOTION_DOT":"0.00073955","TLE_LINE2":"2 47989  53.0436 292.3622 0004558 339.5786 207.1269 15.73192191  3671","NORAD_CAT_ID":"47989","REF_FRAME":"TEME","CLASSIFICATION_TYPE":"U","REV_AT_EPOCH":"367","PERIAPSIS":"346.716","FILE":"3153808","LAUNCH_DATE":"2021-03-24","DECAY_DATE":null,"OBJECT_NAME":"STARLINK-2305","ECCENTRICITY":"0.00045580","MEAN_ELEMENT_THEORY":"SGP4","COUNTRY_CODE":"US","SEMIMAJOR_AXIS":"6727.917","TLE_LINE1":"1 47989U 21024N   21283.00001157  .00073955  00000-0  52657-3 0  9993","BSTAR":"0.00052657000000","SITE":"AFETR","RCS_SIZE":"LARGE","OBJECT_ID":"2021-024N","INCLINATION":"53.0436","GP_ID":"186728622","APOAPSIS":"352.849","PERIOD":"91.534","MEAN_MOTION":"15.73192191","TIME_SYSTEM":"UTC","EPOCH":"2021-10-10T00:00:00.999648","RA_OF_ASC_NODE":"292.3622","OBJECT_TYPE":"PAYLOAD","EPHEMERIS_TYPE":"0","ELEMENT_SET_NO":"999"},{"OBJECT_NAME":"STARLINK-2307","ECCENTRICITY":"0.00043660","DECAY_DATE":null,"LAUNCH_DATE":"2021-03-24","FILE":"3153808","PERIAPSIS":"346.661","REV_AT_EPOCH":"367","CLASSIFICATION_TYPE":"U","TLE_LINE2":"2 47990  53.0441 292.3646 0004366 341.2523 205.9439 15.73256612  3675","NORAD_CAT_ID":"47990","REF_FRAME":"TEME","MEAN_MOTION_DOT":"-0.00022724","ARG_OF_PERICENTER":"341.2523","CENTER_NAME":"EARTH","MEAN_ANOMALY":"205.9439","MEAN_MOTION_DDOT":"0.0000000000000","ELEMENT_SET_NO":"999","OBJECT_TYPE":"PAYLOAD","EPHEMERIS_TYPE":"0","RA_OF_ASC_NODE":"292.3646","EPOCH":"2021-10-10T00:00:00.999648","TIME_SYSTEM":"UTC","MEAN_MOTION":"15.73256612","PERIOD":"91.530","APOAPSIS":"352.536","GP_ID":"186728878","SITE":"AFETR","INCLINATION":"53.0441","RCS_SIZE":"LARGE","OBJECT_ID":"2021-024P","SEMIMAJOR_AXIS":"6727.734","BSTAR":"-0.00015738000000","TLE_LINE1":"1 47990U 21024P   21283.00001157 -.00022724  00000-0 -15738-3 0  9994","MEAN_ELEMENT_THEORY":"SGP4","COUNTRY_CODE":"US"},{"EPHEMERIS_TYPE":"0","OBJECT_TYPE":"PAYLOAD","ELEMENT_SET_NO":"999","RA_OF_ASC_NODE":"296.3546","TIME_SYSTEM":"UTC","EPOCH":"2021-10-10T00:00:00.999648","PERIOD":"94.198","MEAN_MOTION":"15.28702143","APOAPSIS":"480.662","SITE":"AFETR","OBJECT_ID":"2021-024Q","RCS_SIZE":"MEDIUM","INCLINATION":"53.0469","GP_ID":"186729625","SEMIMAJOR_AXIS":"6857.828","TLE_LINE1":"1 47991U 21024Q   21283.00001157 -.00938412  00000-0 -35806-1 0  9991","BSTAR":"-0.03580600000000","MEAN_ELEMENT_THEORY":"SGP4","COUNTRY_CODE":"US","DECAY_DATE":null,"OBJECT_NAME":"STARLINK-2279","ECCENTRICITY":"0.00014130","LAUNCH_DATE":"2021-03-24","FILE":"3153808","REV_AT_EPOCH":"364","PERIAPSIS":"478.724","CLASSIFICATION_TYPE":"U","MEAN_MOTION_DOT":"-0.00938412","TLE_LINE2":"2 47991  53.0469 296.3546 0001413  62.2313 217.3644 15.28702143  3643","NORAD_CAT_ID":"47991","REF_FRAME":"TEME","ARG_OF_PERICENTER":"62.2313","MEAN_MOTION_DDOT":"0.0000000000000","MEAN_ANOMALY":"217.3644","CENTER_NAME":"EARTH"},{"MEAN_MOTION":"15.43478136","PERIOD":"93.296","EPOCH":"2021-10-10T00:00:00.999648","TIME_SYSTEM":"UTC","RA_OF_ASC_NODE":"294.0918","ELEMENT_SET_NO":"999","EPHEMERIS_TYPE":"0","OBJECT_TYPE":"PAYLOAD","COUNTRY_CODE":"US","MEAN_ELEMENT_THEORY":"SGP4","TLE_LINE1":"1 47992U 21024R   21283.00001157 -.00946273  00000-0 -22701-1 0  9996","BSTAR":"-0.02270100000000","SEMIMAJOR_AXIS":"6813.990","GP_ID":"186727878","RCS_SIZE":"LARGE","INCLINATION":"53.0438","OBJECT_ID":"2021-024R","SITE":"AFETR","APOAPSIS":"436.902","PERIAPSIS":"434.809","REV_AT_EPOCH":"367","FILE":"3153808","LAUNCH_DATE":"2021-03-24","ECCENTRICITY":"0.00015360","OBJECT_NAME":"STARLINK-2229","DECAY_DATE":null,"MEAN_ANOMALY":"80.4127","CENTER_NAME":"EARTH","MEAN_MOTION_DDOT":"0.0000000000000","ARG_OF_PERICENTER":"49.0957","REF_FRAME":"TEME","TLE_LINE2":"2 47992  53.0438 294.0918 0001536  49.0957  80.4127 15.43478136  3678","NORAD_CAT_ID":"47992","MEAN_MOTION_DOT":"-0.00946273","CLASSIFICATION_TYPE":"U"},{"APOAPSIS":"547.774","SITE":"AFETR","RCS_SIZE":"LARGE","OBJECT_ID":"2021-024S","INCLINATION":"53.0563","GP_ID":"186728123","SEMIMAJOR_AXIS":"6925.348","TLE_LINE1":"1 47993U 21024S   21282.49813330 -.00000336  00000-0 -37033-5 0  9992","BSTAR":"-0.00000370330000","MEAN_ELEMENT_THEORY":"SGP4","COUNTRY_CODE":"US","EPHEMERIS_TYPE":"0","OBJECT_TYPE":"PAYLOAD","ELEMENT_SET_NO":"999","RA_OF_ASC_NODE":"334.0229","TIME_SYSTEM":"UTC","EPOCH":"2021-10-09T11:57:18.717120","PERIOD":"95.592","MEAN_MOTION":"15.06400285","CLASSIFICATION_TYPE":"U","MEAN_MOTION_DOT":"-0.00000336","NORAD_CAT_ID":"47993","TLE_LINE2":"2 47993  53.0563 334.0229 0000811  91.2936 268.8146 15.06400285 32123","REF_FRAME":"TEME","ARG_OF_PERICENTER":"91.2936","MEAN_MOTION_DDOT":"0.0000000000000","CENTER_NAME":"EARTH","MEAN_ANOMALY":"268.8146","DECAY_DATE":null,"OBJECT_NAME":"STARLINK-2273","ECCENTRICITY":"0.00008110","LAUNCH_DATE":"2021-03-24","FILE":"3153808","REV_AT_EPOCH":"3212","PERIAPSIS":"546.651"},{"LAUNCH_DATE":"2021-03-24","OBJECT_NAME":"STARLINK-2290","ECCENTRICITY":"0.00009240","DECAY_DATE":null,"PERIAPSIS":"546.578","REV_AT_EPOCH":"3186","FILE":"3153808","TLE_LINE2":"2 47994  53.0560 348.7036 0000924  98.9647 261.1447 15.06398597 31869","NORAD_CAT_ID":"47994","REF_FRAME":"TEME","MEAN_MOTION_DOT":"-0.00001430","CLASSIFICATION_TYPE":"U","MEAN_ANOMALY":"261.1447","CENTER_NAME":"EARTH","MEAN_MOTION_DDOT":"0.0000000000000","ARG_OF_PERICENTER":"98.9647","RA_OF_ASC_NODE":"348.7036","ELEMENT_SET_NO":"999","EPHEMERIS_TYPE":"0","OBJECT_TYPE":"PAYLOAD","PERIOD":"95.592","MEAN_MOTION":"15.06398597","EPOCH":"2021-10-09T13:38:49.747776","TIME_SYSTEM":"UTC","GP_ID":"186729378","SITE":"AFETR","RCS_SIZE":"LARGE","INCLINATION":"53.0560","OBJECT_ID":"2021-024T","APOAPSIS":"547.858","MEAN_ELEMENT_THEORY":"SGP4","COUNTRY_CODE":"US","SEMIMAJOR_AXIS":"6925.353","TLE_LINE1":"1 47994U 21024T   21282.56863134 -.00001430  00000-0 -77153-4 0  9990","BSTAR":"-0.00007715300000"},{"CLASSIFICATION_TYPE":"U","REF_FRAME":"TEME","NORAD_CAT_ID":"47995","TLE_LINE2":"2 47995  53.0704 313.9015 0001409  78.7752 281.3395 15.05572758 32356","MEAN_MOTION_DOT":"-0.00000768","ARG_OF_PERICENTER":"78.7752","CENTER_NAME":"EARTH","MEAN_ANOMALY":"281.3395","MEAN_MOTION_DDOT":"0.0000000000000","ECCENTRICITY":"0.00014090","OBJECT_NAME":"STARLINK-2309","DECAY_DATE":null,"LAUNCH_DATE":"2021-03-24","FILE":"3153808","PERIAPSIS":"548.774","REV_AT_EPOCH":"3235","APOAPSIS":"550.726","GP_ID":"186729126","RCS_SIZE":"MEDIUM","INCLINATION":"53.0704","OBJECT_ID":"2021-024U","SITE":"AFETR","TLE_LINE1":"1 47995U 21024U   21282.46078723 -.00000768  00000-0 -33595-4 0  9997","BSTAR":"-0.00003359500000","SEMIMAJOR_AXIS":"6927.885","COUNTRY_CODE":"US","MEAN_ELEMENT_THEORY":"SGP4","ELEMENT_SET_NO":"999","EPHEMERIS_TYPE":"0","OBJECT_TYPE":"PAYLOAD","RA_OF_ASC_NODE":"313.9015","EPOCH":"2021-10-09T11:03:32.016672","TIME_SYSTEM":"UTC","PERIOD":"95.645","MEAN_MOTION":"15.05572758"}];
